School_Name,School_Grade,Overall_ACH_Grade,Read_Ach_Grade,Math_Ach_Grade,Write_Ach_Grade,Sci_Ach_Grade,Overall_Weighted_Growth_Grade,Read_Growth_Grade,Math_Growth_Grade,Write_Growth_Grade,Enrol_TOT,PCT_AmInd,PCT_Asian,PCT_Black,PCT_hisp,PCT_White,PCT_PI,PCT_2ormore,PCT_FREE_MEAL,PCT_Single_Family,PCT_More_than_INCOME_60000,EDU_Population35to44years_Bachelorsdegreeorhigher,EDU_Population45to64years_Bachelorsdegreeorhigher,City,Zipcode,Address
'ACADEMY ENDEAVOUR ELEMENTARY SCHOOL',7,9,9,9,9,9,7,7,7,7,629,0.00159,0.034976,0.030207,0.141494,0.736089,0.004769,0.050874,0.1447,0.16435,0.80421,0.576,0.584,COLORADO SPRINGS,80920,3475 HAMPTON PARK DRIVE
'ACADEMY INTERNATIONAL ELEMENTARY SCHOOL',12,12,12,10,11,12,11,12,11,7,728,0.001374,0.10989,0.04533,0.103022,0.690934,0.006868,0.042582,0.0832,0.16435,0.80421,0.576,0.584,COLORADO SPRINGS,80920,8550 CHARITY
'ANTELOPE TRAILS ELEMENTARY SCHOOL',10,10,10,9,10,9,9,6,9,9,537,0.001862,0.022346,0.009311,0.117318,0.817505,0.001862,0.029795,0.0845,0.082265,0.83179,0.66,0.686,COLORADO SPRINGS,80921,15280 JESSIE DRIVE
'ASPEN VALLEY HIGH SCHOOL',7,6,9,3,6,3,12,12,10,12,99,0.010101,0.020202,0.020202,0.161616,0.747475,0,0.040404,0.1818,0.16435,0.80421,0.576,0.584,COLORADO SPRINGS,80920,1450 CHAPEL HILLS DRIVE
'CHALLENGER MIDDLE SCHOOL',8,10,9,9,9,12,6,7,6,7,720,0.002778,0.026389,0.011111,0.104167,0.813889,0.002778,0.038889,0.0861,0.16435,0.80421,0.576,0.584,COLORADO SPRINGS,80920,10215 LEXINGTON DRIVE
'CHINOOK TRAIL ELEMENTARY SCHOOL',13,12,12,10,12,12,12,10,12,9,483,0.006211,0.062112,0.016563,0.10352,0.728778,0.004141,0.078675,0.0435,0.074449,0.804114,0.611,0.59,COLORADO SPRINGS,80924,11795 GRAND LAWN CIRCLE
'DISCOVERY CANYON CAMPUS SCHOOL',6,10,9,11,10,9,5,1,6,6,2296,0.004355,0.031359,0.024826,0.101045,0.787456,0.00392,0.047038,0.0771,0.082265,0.83179,0.66,0.686,COLORADO SPRINGS,80921,1810 NORTHGATE BOULEVARD
'DISCOVERY CANYON CAMPUS SCHOOL',9,10,9,10,10,10,7,6,6,7,2296,0.004355,0.031359,0.024826,0.101045,0.787456,0.00392,0.047038,0.0771,0.082265,0.83179,0.66,0.686,COLORADO SPRINGS,80921,1810 NORTHGATE BOULEVARD
'DISCOVERY CANYON CAMPUS SCHOOL',9,10,10,10,10,10,6,6,6,6,2296,0.004355,0.031359,0.024826,0.101045,0.787456,0.00392,0.047038,0.0771,0.082265,0.83179,0.66,0.686,COLORADO SPRINGS,80921,1810 NORTHGATE BOULEVARD
'EAGLEVIEW MIDDLE SCHOOL',9,9,9,9,9,9,7,6,7,8,937,0.007471,0.025614,0.037353,0.127001,0.748132,0.003202,0.051227,0.1526,0.18777,0.788041,0.573,0.649,COLORADO SPRINGS,80919,1325 VINDICATOR DRIVE
'EDITH WOLFORD ELEMENTARY SCHOOL',10,9,9,7,9,9,10,6,10,10,353,0.008499,0.005666,0.008499,0.09915,0.815864,0.002833,0.05949,0.2048,0.087449,0.744983,0.607,0.522,COLORADO SPRINGS,80908,13710 BLACK FOREST ROAD
'EXPLORER ELEMENTARY SCHOOL',6,9,9,9,10,9,3,6,1,4,522,0.001916,0.01341,0.02682,0.145594,0.745211,0.001916,0.065134,0.1492,0.16435,0.80421,0.576,0.584,COLORADO SPRINGS,80920,4190 BARDOT DRIVE
'FRONTIER ELEMENTARY SCHOOL',9,9,7,8,8,9,9,9,6,9,417,0.009592,0.035971,0.076739,0.143885,0.685851,0.002398,0.045564,0.2931,0.16435,0.80421,0.576,0.584,COLORADO SPRINGS,80920,3755 MEADOW RIDGE DRIVE
'HIGH PLAINS ELEMENTARY SCHOOL',4,6,6,6,6,7,3,5,3,3,518,0,0.104247,0.015444,0.189189,0.656371,0.003861,0.030888,0.1969,0.158845,0.798367,0.687,0.727,COLORADO SPRINGS,80920,2248 VINTAGE DRIVE
'LIBERTY HIGH SCHOOL',8,9,9,9,9,9,5,6,5,5,1537,0.003904,0.026025,0.03188,0.13728,0.749512,0.002602,0.048796,0.0813,0.16435,0.80421,0.576,0.584,COLORADO SPRINGS,80920,8720 SCARBOROUGH DRIVE
'MOUNTAIN RIDGE MIDDLE SCHOOL',9,9,9,9,9,9,6,6,6,6,1017,0.003933,0.052114,0.007866,0.111111,0.782694,0.000983,0.041298,0.0669,0.142255,0.860478,0.662,0.65,COLORADO SPRINGS,80920,9150 LEXINGTON DRIVE
'PINE CREEK HIGH SCHOOL',9,10,10,9,11,10,6,6,6,7,1462,0.005472,0.031464,0.02736,0.102599,0.794802,0.006156,0.032148,0.0383,0.087449,0.744983,0.607,0.522,COLORADO SPRINGS,80908,10750 THUNDER MOUNTAIN AVENUE
'PRAIRIE HILLS ELEMENTARY SCHOOL',9,7,8,7,7,9,7,5,9,7,482,0.002075,0.056017,0.014523,0.116183,0.788382,0,0.022822,0.0726,0.128214,0.815745,0.482,0.333,COLORADO SPRINGS,80920,8025 TELEGRAPH DRIVE
'RAMPART HIGH SCHOOL',9,9,9,10,9,9,5,5,6,2,1589,0.005664,0.073002,0.044053,0.141598,0.681561,0.004405,0.049717,0.1265,0.16435,0.80421,0.576,0.584,COLORADO SPRINGS,80920,8250 LEXINGTON DRIVE
'RANCH CREEK ELEMENTARY',9,9,9,7,9,9,9,8,9,9,460,0.004348,0.023913,0.036957,0.121739,0.773913,0.002174,0.036957,0.1164,0.074449,0.804114,0.611,0.59,COLORADO SPRINGS,80924,9155 TUTT BOULEVARD
'ROCKRIMMON ELEMENTARY SCHOOL',7,10,10,10,10,9,6,6,6,6,344,0.005814,0.031977,0.031977,0.127907,0.729651,0,0.072674,0.1773,0.18777,0.788041,0.573,0.649,COLORADO SPRINGS,80919,194 W MIKADO DRIVE
'TCA COLLEGE PATHWAYS',10,13,13,11,13,12,9,9,7,10,424,0.004717,0.009434,0.011792,0.068396,0.860849,0.009434,0.035377,0.0354,0.082265,0.83179,0.66,0.686,COLORADO SPRINGS,80921,12201 CROSS PEAK VIEW
'THE CLASSICAL ACADEMY CHARTER',9,10,11,10,10,9,7,6,6,7,2051,0.004388,0.030229,0.015115,0.08825,0.821063,0.00195,0.039005,0.0546,0.082265,0.83179,0.66,0.686,COLORADO SPRINGS,80921,975 STOUT ROAD
'THE CLASSICAL ACADEMY HIGH SCHOOL',13,13,12,12,12,13,9,9,9,9,589,0,0.013582,0.027165,0.059423,0.860781,0.003396,0.035654,0.0526,0.082265,0.83179,0.66,0.686,COLORADO SPRINGS,80921,975 STOUT ROAD
'THE CLASSICAL ACADEMY MIDDLE SCHOOL',12,12,12,12,12,12,10,12,9,7,434,0,0.018433,0.018433,0.078341,0.845622,0,0.039171,0.0645,0.082265,0.83179,0.66,0.686,COLORADO SPRINGS,80921,975 STOUT ROAD
'THE DA VINCI ACADEMY SCHOOL',8,9,9,9,9,9,7,6,6,7,397,0.007557,0.065491,0.037783,0.103275,0.707809,0.005038,0.073048,0.0907,0.082265,0.83179,0.66,0.686,COLORADO SPRINGS,80921,1335 BRIDLE OAK LANE
'TIMBERVIEW MIDDLE SCHOOL',7,9,9,9,9,9,6,6,8,6,1076,0.003717,0.026022,0.039963,0.1329,0.73513,0.001859,0.060409,0.158,0.16435,0.80421,0.576,0.584,COLORADO SPRINGS,80920,8680 SCARBOROUGH DRIVE
'WOODMEN-ROBERTS ELEMENTARY SCHOOL',9,10,10,9,11,10,7,9,6,8,367,0.002725,0.040872,0.016349,0.103542,0.79564,0,0.040872,0.0968,0.18777,0.788041,0.573,0.649,COLORADO SPRINGS,80919,8365 ORCHARD PATH ROAD
'PRAIRIE HILLS ELEMENTARY SCHOOL',10,6,6,7,6,6,12,9,9,13,482,0.002075,0.056017,0.014523,0.116183,0.788382,0,0.022822,0.0726,0.128214,0.815745,0.482,0.333,COLORADO SPRINGS,80920,8025 TELEGRAPH DRIVE
'COLORADO SPRINGS CHARTER ACADEMY',7,9,9,7,9,9,9,6,7,9,417,0,0.014388,0.01199,0.206235,0.729017,0.002398,0.035971,0.3046,0.393165,0.390238,0.187,0.23,COLORADO SPRINGS,80909,2577 N CHELTON ROAD
'COLORADO SPRINGS CHARTER ACADEMY',13,12,10,11,11,13,11,10,9,10,417,0,0.014388,0.01199,0.206235,0.729017,0.002398,0.035971,0.3046,0.393165,0.390238,0.187,0.23,COLORADO SPRINGS,80909,2577 N CHELTON ROAD
'COLORADO SPRINGS EARLY COLLEGES',6,9,8,9,9,7,5,6,3,5,579,0.008636,0.025907,0.112263,0.164076,0.678756,0.006908,0.003454,0.2729,0.357895,0.425047,0.354,0.345,COLORADO SPRINGS,80907,4435 NORTH CHESTNUT
'PIKES PEAK PREP',5,6,6,6,6,6,5,6,5,5,288,0.024306,0.003472,0.25,0.277778,0.371528,0.020833,0.052083,0.566,0.386981,0.380233,0.346,0.263,COLORADO SPRINGS,80903,525 EAST COSTILLA STREET
'PIKES PEAK PREP',9,6,6,6,6,4,10,11,7,12,288,0.024306,0.003472,0.25,0.277778,0.371528,0.020833,0.052083,0.566,0.386981,0.380233,0.346,0.263,COLORADO SPRINGS,80903,525 EAST COSTILLA STREET
'PIKES PEAK PREP',6,7,9,7,7,7,12,12,9,12,288,0.024306,0.003472,0.25,0.277778,0.371528,0.020833,0.052083,0.566,0.386981,0.380233,0.346,0.263,COLORADO SPRINGS,80903,525 EAST COSTILLA STREET
'SCHOLARS TO LEADERS ACADEMY',1,5,5,4,5,5,1,3,3,1,246,0,0.012195,0.113821,0.626016,0.231707,0,0.01626,0.8211,0.357895,0.425047,0.354,0.345,COLORADO SPRINGS,80907,3115 LARKSPUR
'SCHOLARS TO LEADERS ACADEMY',4,3,3,1,4,1,5,6,1,9,246,0,0.012195,0.113821,0.626016,0.231707,0,0.01626,0.8211,0.357895,0.425047,0.354,0.345,COLORADO SPRINGS,80907,3115 LARKSPUR
'THE VANGUARD SCHOOL (HIGH)',13,13,13,13,13,13,12,13,9,11,211,0.009479,0.066351,0.023697,0.161137,0.687204,0,0.052133,0.1801,0.331695,0.623349,0.525,0.513,COLORADO SPRINGS,80906,1832 SOUTH WAHSATCH
'THE VANGUARD SCHOOL (MIDDLE)',9,12,12,12,13,12,6,7,5,6,213,0,0.061033,0.089202,0.206573,0.577465,0.004695,0.061033,0.23,0.331695,0.623349,0.525,0.513,COLORADO SPRINGS,80906,1832 SOUTH WAHSATCH
'THOMAS MACLAREN STATE CHARTER SCHOOL',9,10,12,9,12,9,7,9,5,9,161,0,0.012422,0.080745,0.173913,0.701863,0,0.031056,0.2795,0.24796,0.608073,0.38,0.426,COLORADO SPRINGS,80918,303 AUSTIN BLUFFS PARKWAY
'THOMAS MACLAREN STATE CHARTER SCHOOL',9,13,12,13,13,12,12,9,13,9,161,0,0.012422,0.080745,0.173913,0.701863,0,0.031056,0.2795,0.24796,0.608073,0.38,0.426,COLORADO SPRINGS,80918,303 AUSTIN BLUFFS PARKWAY
'HIGH PLAINS ELEMENTARY SCHOOL',9,9,9,9,9,9,10,9,9,10,518,0,0.104247,0.015444,0.189189,0.656371,0.003861,0.030888,0.1969,0.158845,0.798367,0.687,0.727,COLORADO SPRINGS,80920,2248 VINTAGE DRIVE
'HORIZON MIDDLE SCHOOL',6,6,6,5,6,6,7,7,6,7,969,0.01032,0.044376,0.194014,0.249742,0.44066,0.004128,0.05676,0.4561,0.262398,0.653248,0.322,0.325,COLORADO SPRINGS,80915,1750 PIROS DRIVE
'SUNRISE ELEMENTARY SCHOOL',6,6,6,6,6,6,7,6,7,6,717,0.008368,0.029289,0.195258,0.200837,0.470014,0.001395,0.09484,0.4434,0.262398,0.653248,0.322,0.325,COLORADO SPRINGS,80911,7070 GRAND VALLEY DRIVE
'BROADMOOR ELEMENTARY SCHOOL',10,12,11,10,12,12,9,7,7,9,318,0.018868,0.012579,0.009434,0.116352,0.795597,0,0.04717,0.1289,0.331695,0.623349,0.525,0.513,COLORADO SPRINGS,80906,440 W CHEYENNE MOUNTAIN BLVD
'CHEYENNE MOUNTAIN CHARTER ACADEMY',9,12,12,12,13,10,8,9,6,7,798,0.005013,0.033835,0.055138,0.23183,0.607769,0.001253,0.065163,0.2619,0.331695,0.623349,0.525,0.513,COLORADO SPRINGS,80906,1832 SOUTH WAHSATCH
'CHEYENNE MOUNTAIN ELEMENTARY SCHOOL',12,13,12,13,13,13,10,7,9,12,324,0,0.04321,0.009259,0.070988,0.833333,0,0.04321,0.0463,0.331695,0.623349,0.525,0.513,COLORADO SPRINGS,80906,5250 FARTHING DRIVE
'CHEYENNE MOUNTAIN HIGH SCHOOL',12,12,12,12,12,10,9,8,9,6,1325,0.006792,0.046792,0.024906,0.126038,0.769811,0.005283,0.020377,0.0906,0.331695,0.623349,0.525,0.513,COLORADO SPRINGS,80906,1200 CRESTA ROAD
'CHEYENNE MOUNTAIN JUNIOR HIGH SCHOOL',9,11,10,10,11,11,7,6,6,9,624,0.00641,0.028846,0.022436,0.107372,0.810897,0.003205,0.020833,0.1122,0.522183,0.368632,0.29,0.295,COLORADO SPRINGS,80905,1200 WEST CHEYENNE ROAD
'GOLD CAMP ELEMENTARY SCHOOL',10,12,12,11,12,11,9,9,9,9,453,0.006623,0.02649,0.011038,0.09713,0.818985,0,0.039735,0.1192,0.331695,0.623349,0.525,0.513,COLORADO SPRINGS,80906,1805 PRESERVE DRIVE
'PINON VALLEY ELEMENTARY SCHOOL',12,11,12,9,12,11,10,10,9,10,324,0.003086,0.046296,0.018519,0.098765,0.768519,0.003086,0.061728,0.1296,0.331695,0.623349,0.525,0.513,COLORADO SPRINGS,80906,6205 FARTHING DRIVE
'SKYWAY PARK ELEMENTARY SCHOOL',9,9,10,9,9,9,9,8,7,9,315,0.006349,0.009524,0.012698,0.161905,0.771429,0,0.038095,0.3841,0.522183,0.368632,0.29,0.295,COLORADO SPRINGS,80905,1100 MERCURY DRIVE
'ACADEMY FOR ADVANCED AND CREATIVE LEARNING',6,9,10,8,9,9,4,6,3,4,244,0.008197,0.036885,0.012295,0.131148,0.786885,0,0.02459,0.2254,0.357895,0.425047,0.354,0.345,COLORADO SPRINGS,80907,2510 NORTH CHESTNUT STREET
ACHIEVEK12,1,5,5,1,5,6,1,1,1,1,193,0.010363,0.010363,0.07772,0.243523,0.601036,0,0.056995,0.1399,0.396251,0.474133,0.185,0.23,COLORADO SPRINGS,80915,1702 NORTH MURRAY BLVD
'AUDUBON ELEMENTARY SCHOOL',6,6,6,6,6,6,6,5,6,5,340,0.014706,0.005882,0.055882,0.297059,0.523529,0.005882,0.097059,0.6461,0.393165,0.390238,0.187,0.23,COLORADO SPRINGS,80909,2400 EAST VAN BUREN STREET
'BATES ELEMENTARY SCHOOL',1,6,6,6,6,6,1,3,3,1,239,0.008368,0.008368,0.079498,0.297071,0.548117,0,0.058577,0.5829,0.357895,0.425047,0.354,0.345,COLORADO SPRINGS,80907,702 CRAGMOR ROAD
'BRISTOL ELEMENTARY SCHOOL',7,6,6,6,6,6,7,7,7,6,225,0.008889,0.004444,0.035556,0.351111,0.528889,0.004444,0.066667,0.76,0.522183,0.368632,0.29,0.295,COLORADO SPRINGS,80905,890 NORTH WALNUT STREET
'BUENA VISTA ELEMENTARY SCHOOL',6,7,9,6,7,9,5,6,4,3,221,0,0.022624,0.004525,0.126697,0.764706,0.00905,0.072398,0.2571,0.522183,0.368632,0.29,0.295,COLORADO SPRINGS,80905,924 W PIKES PEAK AVE
'CARVER ELEMENTARY SCHOOL',6,6,6,6,6,5,7,7,8,4,363,0.00551,0.011019,0.07438,0.413223,0.393939,0.008264,0.093664,0.7713,0.358272,0.522805,0.323,0.36,COLORADO SPRINGS,80917,4740 ARTISTIC CIRCLE
'CIVA CHARTER ACADEMY',6,6,6,5,6,5,6,9,6,6,155,0,0.012903,0.051613,0.154839,0.703226,0.006452,0.070968,0.4194,0.24796,0.608073,0.38,0.426,COLORADO SPRINGS,80918,4635 NORTHPARK DRIVE
'COLUMBIA ELEMENTARY SCHOOL',9,6,7,7,7,5,9,6,12,8,315,0.006349,0.003175,0.069841,0.295238,0.520635,0.003175,0.101587,0.7483,0.386981,0.380233,0.346,0.263,COLORADO SPRINGS,80903,835 EAST ST VRAIN STREET
'CORONADO HIGH SCHOOL',6,8,7,9,7,7,4,6,3,5,1416,0.008475,0.017655,0.040254,0.210452,0.642655,0.003531,0.076977,0.3644,0.281338,0.531963,0.373,0.374,COLORADO SPRINGS,80904,1590 WEST FILLMORE STREET
'DOHERTY HIGH SCHOOL',7,7,7,8,7,7,6,6,7,6,2172,0.006906,0.022099,0.055249,0.217772,0.608195,0.003683,0.086096,0.3223,0.358272,0.522805,0.323,0.36,COLORADO SPRINGS,80917,4515 BARNES ROAD
'FREEDOM ELEMENTARY SCHOOL',9,8,8,9,7,7,9,9,9,8,607,0.004942,0.034596,0.057661,0.138386,0.69028,0.004942,0.069193,0.2107,0.145994,0.717422,0.436,0.404,COLORADO SPRINGS,80923,5280 BUTTERFIELD DRIVE
'GALILEO SCHOOL OF MATH AND SCIENCE',6,6,6,6,5,6,6,5,7,4,659,0.007587,0.009105,0.103187,0.344461,0.450683,0.00607,0.078907,0.7633,0.393165,0.390238,0.187,0.23,COLORADO SPRINGS,80909,1600 NORTH UNION BLVD
'GLOBE CHARTER SCHOOL',6,6,6,7,5,6,7,9,9,5,192,0.015625,0.015625,0.119792,0.208333,0.567708,0,0.072917,0.6042,0.393165,0.390238,0.187,0.23,COLORADO SPRINGS,80909,3302 ALPINE PLACE
'GRANT ELEMENTARY SCHOOL',6,6,6,6,6,6,5,6,4,6,506,0.011858,0.037549,0.079051,0.290514,0.462451,0.005929,0.112648,0.666,0.24796,0.608073,0.38,0.426,COLORADO SPRINGS,80918,3215 WESTWOOD BOULEVARD
'HENRY ELEMENTARY SCHOOL',3,6,5,6,6,6,1,3,1,2,411,0.009732,0.03163,0.075426,0.304136,0.518248,0.002433,0.058394,0.6361,0.396251,0.474133,0.185,0.23,COLORADO SPRINGS,80915,1310 LEHMBERG BOULEVARD
'HOLMES MIDDLE SCHOOL',9,9,9,9,9,9,9,7,9,6,699,0.004292,0.018598,0.020029,0.217454,0.676681,0,0.062947,0.3834,0.281338,0.531963,0.373,0.374,COLORADO SPRINGS,80904,2455 MESA ROAD
'HOWBERT ELEMENTARY SCHOOL',11,9,9,9,10,12,9,6,9,9,310,0.003226,0.009677,0.012903,0.212903,0.709677,0.003226,0.048387,0.4342,0.281338,0.531963,0.373,0.374,COLORADO SPRINGS,80904,1023 NORTH 31ST STREET
'HUNT ELEMENTARY SCHOOL',5,3,2,3,3,3,6,5,6,6,428,0.018692,0.007009,0.205607,0.455607,0.245327,0,0.067757,0.9345,0.386981,0.380233,0.346,0.263,COLORADO SPRINGS,80903,917 EAST MORENO AVENUE
'JACK SWIGERT AEROSPACE ACADEMY',2,2,2,1,2,1,3,5,2,3,513,0.017544,0.007797,0.157895,0.518519,0.259259,0,0.038986,0.8538,0.393165,0.390238,0.187,0.23,COLORADO SPRINGS,80909,4220 EAST PIKES PEAK AVE
'JENKINS MIDDLE SCHOOL',7,9,9,9,9,9,6,6,6,5,946,0.0074,0.033827,0.053911,0.168076,0.668076,0.005285,0.063425,0.2315,0.145994,0.717422,0.436,0.404,COLORADO SPRINGS,80923,6410 AUSTIN BLUFFS PARKWAY
'KELLER ELEMENTARY SCHOOL',9,6,6,6,6,6,9,10,9,7,530,0.007547,0.009434,0.022642,0.309434,0.569811,0.003774,0.077358,0.5666,0.24796,0.608073,0.38,0.426,COLORADO SPRINGS,80918,3730 EAST MONTEBELLO DRIVE
'KING ELEMENTARY SCHOOL',6,6,6,6,6,6,6,6,6,6,430,0,0.013953,0.081395,0.225581,0.546512,0.006977,0.125581,0.5363,0.24796,0.608073,0.38,0.426,COLORADO SPRINGS,80918,6110 SAPPORO DRIVE
'MANN MIDDLE SCHOOL',6,6,6,6,5,6,6,6,6,5,520,0.015385,0.034615,0.059615,0.3,0.515385,0,0.075,0.65,0.357895,0.425047,0.354,0.345,COLORADO SPRINGS,80907,1001 EAST VAN BUREN STREET
'MCAULIFFE ELEMENTARY',6,5,5,6,5,4,7,5,12,6,592,0.010135,0.013514,0.094595,0.25,0.523649,0.003378,0.10473,0.5498,0.396251,0.474133,0.185,0.23,COLORADO SPRINGS,80915,830 HATHAWAY DRIVE
'MIDLAND ELEMENTARY SCHOOL',6,6,6,6,6,6,6,6,9,6,158,0.006329,0.012658,0.031646,0.373418,0.518987,0,0.056962,0.8038,0.281338,0.531963,0.373,0.374,COLORADO SPRINGS,80904,2110 WEST BROADWAY STREET
'MITCHELL HIGH SCHOOL',5,3,3,3,3,5,6,5,6,6,1037,0.011572,0.019286,0.118611,0.396336,0.3973,0.003857,0.053038,0.6075,0.393165,0.390238,0.187,0.23,COLORADO SPRINGS,80909,1205 POTTER DRIVE
'NORTH MIDDLE SCHOOL',5,6,6,6,6,6,3,5,3,3,663,0.013575,0.015083,0.064857,0.257919,0.558069,0.001508,0.088989,0.6154,0.386981,0.380233,0.346,0.263,COLORADO SPRINGS,80903,612 EAST YAMPA STREET
'PALMER HIGH SCHOOL',7,7,7,9,7,7,9,7,10,6,2024,0.013834,0.020751,0.054842,0.254447,0.585474,0.000988,0.069664,0.4042,0.386981,0.380233,0.346,0.263,COLORADO SPRINGS,80903,301 NORTH NEVADA AVENUE
'QUEEN PALMER ELEMENTARY SCHOOL',4,5,4,6,4,3,5,1,12,1,266,0.026316,0.011278,0.12406,0.360902,0.394737,0,0.082707,0.9398,0.393165,0.390238,0.187,0.23,COLORADO SPRINGS,80909,1921 EAST YAMPA STREET
'ROGERS ELEMENTARY SCHOOL',5,5,5,3,5,5,6,6,6,4,268,0.003731,0.018657,0.078358,0.496269,0.343284,0,0.059701,0.7873,0.427476,0.28122,0.16,0.128,COLORADO SPRINGS,80910,110 SOUTH CIRCLE DRIVE
'ROOSEVELT EDISON CHARTER SCHOOL',6,6,5,6,6,5,6,6,5,3,715,0.015385,0.008392,0.093706,0.664336,0.179021,0.004196,0.034965,0.8615,0.427476,0.28122,0.16,0.128,COLORADO SPRINGS,80910,205 SOUTH BYRON DRIVE
'RUDY ELEMENTARY SCHOOL',6,8,7,9,7,7,6,10,3,6,450,0.004444,0.013333,0.057778,0.177778,0.682222,0,0.064444,0.4595,0.358272,0.522805,0.323,0.36,COLORADO SPRINGS,80917,5370 CRACKER BARREL CIRCLE
'RUSSELL MIDDLE SCHOOL',6,6,6,6,6,6,6,7,6,6,709,0.009873,0.011283,0.067701,0.25952,0.574048,0.005642,0.071932,0.519,0.24796,0.608073,0.38,0.426,COLORADO SPRINGS,80918,3825 EAST MONTEBELLO DRIVE
'SABIN MIDDLE SCHOOL',5,6,6,6,6,6,3,6,3,3,842,0.008314,0.010689,0.087886,0.30285,0.524941,0.001188,0.064133,0.6247,0.358272,0.522805,0.323,0.36,COLORADO SPRINGS,80917,3605 NORTH CAREFREE CIRCLE
'SPACE TECHNOLOGY AND ARTS ACADEMY (STAR ACADEMY)',1,5,5,5,5,6,1,1,1,1,446,0.004484,0.008969,0.179372,0.446188,0.278027,0,0.08296,0.7332,0.427476,0.28122,0.16,0.128,COLORADO SPRINGS,80910,2520 AIRPORT ROAD
'SPACE TECHNOLOGY AND ARTS ACADEMY (STAR ACADEMY)',6,4,3,5,4,6.718607,9,7,6,9,446,0.004484,0.008969,0.179372,0.446188,0.278027,0,0.08296,0.7332,0.427476,0.28122,0.16,0.128,COLORADO SPRINGS,80910,2520 AIRPORT ROAD
'STEELE ELEMENTARY SCHOOL',12,10,9,12,10,10,10,6,12,9,437,0,0.01373,0.01373,0.08238,0.869565,0,0.020595,0.1236,0.190007,0.818793,0.783,0.661,COLORADO SPRINGS,80907,1720 NORTH WEBER STREET
'TRAILBLAZER ELEMENTARY SCHOOL',6,8,8,7,9,7,3,4,2,3,527,0.00759,0.030361,0.001898,0.13093,0.800759,0.001898,0.026565,0.0835,0.142255,0.860478,0.662,0.65,COLORADO SPRINGS,80919,2015 WICKES ROAD
'TWAIN ELEMENTARY SCHOOL',5,5,5,5,5,3,6,6,5,5,345,0.005797,0.017391,0.014493,0.101449,0.831884,0,0.028986,0.1797,0.221867,0.756045,0.576,0.58,COLORADO SPRINGS,80909,3402 EAST SAN MIGUEL STREET
'WASSON HIGH SCHOOL',2,2,2,4,3,3,2,1,2,2,996,0.01506,0.03012,0.120482,0.330321,0.423695,0.003012,0.077309,0.6145,0.393165,0.390238,0.187,0.23,COLORADO SPRINGS,80909,2115 AFTON WAY
'WEST ELEMENTARY SCHOOL',4,5,5,5,5,6,3,5,1,3,358,0.005587,0.002793,0.044693,0.335196,0.530726,0.002793,0.078212,0.7798,0.281338,0.531963,0.373,0.374,COLORADO SPRINGS,80904,25 NORTH 20TH STREET
'WEST INTERGENERATIONAL CENTER',6,6,6,6,5,6,6,6,6,4,270,0.014815,0.007407,0.066667,0.311111,0.533333,0,0.066667,0.7,0.281338,0.531963,0.373,0.374,COLORADO SPRINGS,80904,1920 WEST PIKES PEAK AVENUE
'WILSON ELEMENTARY SCHOOL',6,6,6,6,6,5,6,6,5,6,406,0.009852,0.022167,0.110837,0.559113,0.231527,0,0.066502,0.8719,0.396251,0.474133,0.185,0.23,COLORADO SPRINGS,80915,1409 DE REAMER CIRCLE
'STEELE ELEMENTARY SCHOOL',10,9,9,9,8,10,9,9,9,6,437,0,0.01373,0.01373,0.08238,0.869565,0,0.020595,0.1236,0.190007,0.818793,0.783,0.661,COLORADO SPRINGS,80907,1720 NORTH WEBER STREET
'MOUNTAIN RIDGE MIDDLE SCHOOL',9,10,10,11,10,9,7,9,7,6,1017,0.003933,0.052114,0.007866,0.111111,0.782694,0.000983,0.041298,0.0669,0.142255,0.860478,0.662,0.65,COLORADO SPRINGS,80920,9150 LEXINGTON DRIVE
'SAND CREEK ELEMENTARY SCHOOL',9,9,9,9,10,9,9,9,6,9,585,0.001709,0.032479,0.008547,0.117949,0.8,0,0.039316,0.1094,0.142255,0.860478,0.662,0.65,COLORADO SPRINGS,80916,550 SAND CREEK DRIVE
'TRAILBLAZER ELEMENTARY SCHOOL',8,10,10,10,9,9,7,9,6,7,527,0.00759,0.030361,0.001898,0.13093,0.800759,0.001898,0.026565,0.0835,0.142255,0.860478,0.662,0.65,COLORADO SPRINGS,80919,2015 WICKES ROAD
'BANNING LEWIS RANCH ACADEMY',9,10,9,10,9,12,7,6,10,6,742,0.013477,0.059299,0.070081,0.136119,0.702156,0.002695,0.016173,0.1078,0,0.886792,0.543,0.213,COLORADO SPRINGS,80927,7094 COTTONWOOD TREE DRIVE
'BANNING LEWIS RANCH ACADEMY',12,9,9,9,9,12,12,12,12,11,742,0.013477,0.059299,0.070081,0.136119,0.702156,0.002695,0.016173,0.1078,0,0.886792,0.543,0.213,COLORADO SPRINGS,80927,7094 COTTONWOOD TREE DRIVE
'EVANS INTERNATIONAL ELEMENTARY SCHOOL',6,6,6,6,7,7,6,6,6,7,679,0.014728,0.029455,0.114875,0.217968,0.509573,0,0.113402,0.4806,0.396251,0.474133,0.185,0.23,COLORADO SPRINGS,80915,1675 WINNEBAGO ROAD
'HORIZON MIDDLE SCHOOL',7,7,6,6,8,6,6,9,6,6,969,0.01032,0.044376,0.194014,0.249742,0.44066,0.004128,0.05676,0.4561,0.262398,0.653248,0.322,0.325,COLORADO SPRINGS,80915,1750 PIROS DRIVE
'ODYSSEY ELEMENTARY SCHOOL',6,6,6,6,6,8,6,6,5,6,564,0.007092,0.037234,0.095745,0.203901,0.60461,0.003546,0.047872,0.4283,0.2215,0.695205,0.414,0.394,COLORADO SPRINGS,80922,6275 BRIDLESPUR AVE
'REMINGTON ELEMENTARY SCHOOL',7,6,6,6,6,6,6,6,7,5,593,0,0.023609,0.082631,0.254637,0.536256,0.008432,0.094435,0.2688,0.2215,0.695205,0.414,0.394,COLORADO SPRINGS,80922,2825 PONY TRACKS DRIVE
'ROCKY MOUNTAIN CLASSICAL ACADEMY',6,7,7,8,6,6,4,3,6,3,892,0,0.017937,0.034753,0.151345,0.723094,0.001121,0.071749,0.1222,0.396251,0.474133,0.185,0.23,COLORADO SPRINGS,80915,1710 PIROS DRIVE
'ROCKY MOUNTAIN CLASSICAL ACADEMY',9,8,9,7,9,5,10,9,6,13,892,0,0.017937,0.034753,0.151345,0.723094,0.001121,0.071749,0.1222,0.396251,0.474133,0.185,0.23,COLORADO SPRINGS,80915,1710 PIROS DRIVE
'SAND CREEK HIGH SCHOOL',7,6,7,6,6,6,5,6,5,5,1175,0.010213,0.059574,0.118298,0.203404,0.559149,0.006809,0.042553,0.2672,0.2215,0.695205,0.414,0.394,COLORADO SPRINGS,80922,7005 NORTH CAREFREE CIRCLE
'SKYVIEW MIDDLE SCHOOL',7,7,6,7,7,6,6,5,8,6,1024,0.006836,0.049805,0.087891,0.208984,0.576172,0.000977,0.069336,0.2539,0.2215,0.695205,0.414,0.394,COLORADO SPRINGS,80922,6350 WINDOM PEAK BOULEVARD
'SPRINGS RANCH ELEMENTARY SCHOOL',9,7,7,7,7,6,8,10,6,8,702,0.004274,0.058405,0.084046,0.179487,0.602564,0.002849,0.068376,0.1967,0.2215,0.695205,0.414,0.394,COLORADO SPRINGS,80922,4350 CENTERVILLE DRIVE
'STETSON ELEMENTARY SCHOOL',7,7,7,7,7,8,6,6,6,6,624,0,0.048077,0.088141,0.205128,0.592949,0.003205,0.0625,0.2024,0.2215,0.695205,0.414,0.394,COLORADO SPRINGS,80922,4910 JEDEDIAH SMITH ROAD
'THE IMAGINE CLASSICAL ACADEMY AT INDIGO RANCH',8,8,7,8,8,7,6,6,5,6,802,0.004988,0.014963,0.057357,0.164589,0.670823,0.009975,0.077307,0.0511,0.145994,0.717422,0.436,0.404,COLORADO SPRINGS,80923,6464 PETERSON ROAD
'THE IMAGINE CLASSICAL ACADEMY AT INDIGO RANCH',7,9,9,9,9,7,6,6,6,7,802,0.004988,0.014963,0.057357,0.164589,0.670823,0.009975,0.077307,0.0511,0.145994,0.717422,0.436,0.404,COLORADO SPRINGS,80923,6464 PETERSON ROAD
'VISTA RIDGE HIGH SCHOOL',6,6,6,7,6,6,5,5,5,5,1147,0.007847,0.046207,0.114211,0.179599,0.602441,0.003487,0.046207,0.1578,0.2215,0.695205,0.414,0.394,COLORADO SPRINGS,80922,6888 BLACK FOREST ROAD
'WEIKEL ELEMENTARY SCHOOL',9,6,6,7,6,6,9,11,9,7,594,0.011785,0.020202,0.144781,0.186869,0.560606,0.006734,0.069024,0.4603,0.192609,0.167535,0.266,0.493,COLORADO SPRINGS,80902,6565 LINDSTROM STREET
'HANOVER JUNIOR-SENIOR HIGH SCHOOL',1,3,3,3,4,4,1,1,3,1,129,0.031008,0.023256,0.015504,0.263566,0.666667,0,0,0.5736,0.410526,0.447028,0.009,0.115,COLORADO SPRINGS,80928,17050 SOUTH PEYTON HIGHWAY
'HANOVER JUNIOR-SENIOR HIGH SCHOOL',5,4,5,1,5,5,6,4,6,7,129,0.031008,0.023256,0.015504,0.263566,0.666667,0,0,0.5736,0.410526,0.447028,0.009,0.115,COLORADO SPRINGS,80928,17050 SOUTH PEYTON HIGHWAY
'HANOVER JUNIOR-SENIOR HIGH SCHOOL',9,6,6,4,6,9,12,10,11,12,129,0.031008,0.023256,0.015504,0.263566,0.666667,0,0,0.5736,0.410526,0.447028,0.009,0.115,COLORADO SPRINGS,80928,17050 SOUTH PEYTON HIGHWAY
'ATLAS PREPARATORY SCHOOL',4,5,5,5,5,6,5,3,6,4,350,0.02,0.12,0.185714,0.388571,0.248571,0.002857,0.034286,0.7714,0.428294,0.324622,0.145,0.138,COLORADO SPRINGS,80916,1628 SOUTH MURRAY BLVD
'ATLAS PREPARATORY SCHOOL',5,6,5,6,6,6.718607,5,5,4,6,350,0.02,0.12,0.185714,0.388571,0.248571,0.002857,0.034286,0.7714,0.428294,0.324622,0.145,0.138,COLORADO SPRINGS,80916,1628 SOUTH MURRAY BLVD
'BRICKER ELEMENTARY SCHOOL',3,6,6,6,6,5,3,5,3,2,368,0.024457,0.035326,0.11413,0.519022,0.277174,0,0.029891,0.8368,0.428294,0.324622,0.145,0.138,COLORADO SPRINGS,80916,4880 DOVER PLACE
'CARMEL MIDDLE SCHOOL',9,6,6,6,5,6,11,10,12,7,427,0.01171,0.039813,0.234192,0.477752,0.222482,0.004684,0.009368,0.8384,0.427476,0.28122,0.16,0.128,COLORADO SPRINGS,80910,1740 PEPPERWOOD DRIVE
'FOX MEADOW MIDDLE SCHOOL',6,6,6,6,6,6,6,9,6,6,525,0.019048,0.04381,0.154286,0.441905,0.333333,0.001905,0.005714,0.7067,0.331695,0.623349,0.525,0.513,COLORADO SPRINGS,80906,1450 CHEYENNE MEADOWS ROAD
'GIBERSON ELEMENTARY SCHOOL',6,5,5,5,5,5,5,6,5,5,344,0.017442,0.055233,0.200581,0.386628,0.319767,0.002907,0.017442,0.7949,0.428294,0.324622,0.145,0.138,COLORADO SPRINGS,80916,2880 FERBER DRIVE
'HARRISON HIGH SCHOOL',6,6,6,6,6,5,10,12,6,11,856,0.014019,0.064252,0.174065,0.418224,0.327103,0,0.002336,0.7033,0.331695,0.623349,0.525,0.513,COLORADO SPRINGS,80906,2755 JANITELL ROAD
'JAMES IRWIN CHARTER ELEMENTARY SCHOOL',10,12,13,12,13,10,9,9,6,10,536,0.009328,0.05597,0.057836,0.322761,0.529851,0.007463,0.016791,0.4123,0.428294,0.324622,0.145,0.138,COLORADO SPRINGS,80916,1626 S MURRAY BOULEVARD
'JAMES IRWIN CHARTER HIGH SCHOOL',9,10,10,9,10,9,6,6,6,6,422,0.016588,0.063981,0.137441,0.241706,0.537915,0,0.00237,0.3318,0.428294,0.324622,0.145,0.138,COLORADO SPRINGS,80916,5525 ASTROZON BLVD.
'JAMES IRWIN CHARTER MIDDLE SCHOOL',6,9,9,10,9,6,6,5,6,5,430,0.016279,0.04186,0.097674,0.388372,0.434884,0.004651,0.016279,0.4419,0.428294,0.324622,0.145,0.138,COLORADO SPRINGS,80916,5525 ASTROZON BLVD
'MONTEREY ELEMENTARY SCHOOL',6,6,6,6,6,5,7,9,6,7,427,0.002342,0.037471,0.152225,0.47541,0.297424,0,0.035129,0.8756,0.427476,0.28122,0.16,0.128,COLORADO SPRINGS,80910,2311 MONTEREY ROAD
'MOUNTAIN VISTA COMMUNITY SCHOOL',6,6,6,6,6,6,6,10,8,5,645,0.007752,0.017054,0.114729,0.469767,0.386047,0.004651,0,0.6248,0.427476,0.28122,0.16,0.128,COLORADO SPRINGS,80910,2550 DORSET DRIVE
'MOUNTAIN VISTA COMMUNITY SCHOOL',9,6,6,6,6,6,9,9,11,9,645,0.007752,0.017054,0.114729,0.469767,0.386047,0.004651,0,0.6248,0.427476,0.28122,0.16,0.128,COLORADO SPRINGS,80910,2550 DORSET DRIVE
'OAK CREEK ELEMENTARY SCHOOL',6,6,5,6,6,5,7,6,7,8,328,0.021341,0.018293,0.097561,0.487805,0.353659,0,0.021341,0.7841,0.331695,0.623349,0.525,0.513,COLORADO SPRINGS,80906,3333 OAK CREEK DRIVE WEST
'OTERO ELEMENTARY SCHOOL',6,6,6,6,7,7,6,7,6,6,443,0.024831,0.072235,0.14447,0.234763,0.474041,0.011287,0.038375,0.5788,0.331695,0.623349,0.525,0.513,COLORADO SPRINGS,80906,1650 CHARMWOOD DRIVE
'PANORAMA MIDDLE SCHOOL',6,5,5,6,5,6,6,6,7,6,518,0.027027,0.050193,0.30695,0.395753,0.216216,0,0.003861,0.7471,0.428294,0.324622,0.145,0.138,COLORADO SPRINGS,80916,2145 SOUTH CHELTON
'PIKES PEAK ELEMENTARY SCHOOL',6,6,5,6,6,6,6,6,7,6,443,0.013544,0.029345,0.182844,0.541761,0.225734,0.002257,0.004515,0.8936,0.427476,0.28122,0.16,0.128,COLORADO SPRINGS,80910,1520 VERDE DRIVE
'SAND CREEK ELEMENTARY SCHOOL',6,5,6,5,6,5,6,7,6,6,585,0.001709,0.032479,0.008547,0.117949,0.8,0,0.039316,0.1094,0.142255,0.860478,0.662,0.65,COLORADO SPRINGS,80916,550 SAND CREEK DRIVE
'SIERRA HIGH SCHOOL',5,5,5,5,6,4,5,5,5,6,861,0.015099,0.04878,0.358885,0.361208,0.206736,0.004646,0.004646,0.6492,0.428294,0.324622,0.145,0.138,COLORADO SPRINGS,80916,2250 JET WING DRIVE
'SOARING EAGLES ELEMENTARY SCHOOL',9,10,9,12,9,11,9,10,6,8,594,0.015152,0.038721,0.156566,0.427609,0.338384,0.006734,0.016835,0.5618,0.428294,0.324622,0.145,0.138,COLORADO SPRINGS,80916,4710 HARRIER RIDGE DRIVE
'STRATMOOR HILLS ELEMENTARY SCHOOL',5,5,5,5,5,6,6,5,6,7,322,0.015528,0.040373,0.118012,0.322981,0.459627,0,0.043478,0.85,0.331695,0.623349,0.525,0.513,COLORADO SPRINGS,80906,200 LOOMIS AVENUE
'STRATTON MEADOWS ELEMENTARY SCHOOL',7,6,7,6,7,6,7,10,6,9,420,0.009524,0.030952,0.1,0.530952,0.311905,0.004762,0.011905,0.8747,0.331695,0.623349,0.525,0.513,COLORADO SPRINGS,80906,610 BROOKSHIRE AVENUE
'TURMAN ELEMENTARY SCHOOL',10,6,6,6,6,6,12,11,8,12,313,0.035144,0.022364,0.204473,0.399361,0.28754,0.00639,0.044728,0.8182,0.428294,0.324622,0.145,0.138,COLORADO SPRINGS,80916,3245 SPRINGNITE DRIVE
'WILDFLOWER ELEMENTARY SCHOOL',9,10,9,8,12,9,6,6,6,9,402,0.022388,0.057214,0.20398,0.31592,0.368159,0.00995,0.022388,0.7132,0.428294,0.324622,0.145,0.138,COLORADO SPRINGS,80916,1160 KEITH DRIVE
