School_Name,School_Grade,Overall_ACH_Grade,Read_Ach_Grade,Math_Ach_Grade,Write_Ach_Grade,Sci_Ach_Grade,Overall_Weighted_Growth_Grade,Read_Growth_Grade,Math_Growth_Grade,Write_Growth_Grade,Enrol_TOT,PCT_AmInd,PCT_Asian,PCT_Black,PCT_hisp,PCT_White,PCT_PI,PCT_2ormore,PCT_FREE_MEAL,PCT_Single_Family,PCT_More_than_INCOME_60000,EDU_Population35to44years_Bachelorsdegreeorhigher,EDU_Population45to64years_Bachelorsdegreeorhigher,City,Zipcode,Address
'FEDERAL HEIGHTS ELEMENTARY SCHOOL',3,1,1,3,1,2,4,4,6,6,651,0.003072,0.001536,0.003072,0.84639,0.144393,0,0.001536,0.9201,0.378916,0.403135,0.106,0.107,DENVER,80221,2500 W 96TH AVENUE
'NORTH STAR ELEMENTARY SCHOOL',5,2,1,3,1,3,6,11,6,6,467,0.008565,0.004283,0.036403,0.798715,0.139186,0,0.012848,0.8994,0.378916,0.403135,0.106,0.107,DENVER,80221,8740 NORTH STAR DRIVE
'VANGUARD CLASSICAL SCHOOL',6,5,5,3,5,3,9,9,9,9,509,0.001965,0.011788,0.129666,0.559921,0.267191,0,0.02947,0.6424,0.329201,0.693909,0.787,0.683,DENVER,80230,801 YOSEMITE STREET
'VANGUARD CLASSICAL SCHOOL',9,5,5,4,6,3,12,9,10,12,509,0.001965,0.011788,0.129666,0.559921,0.267191,0,0.02947,0.6424,0.329201,0.693909,0.787,0.683,DENVER,80230,801 YOSEMITE STREET
'COLORADO CALVERT ACADEMY',3,5,6,3,5,6,2,4,1,3,180,0,0.033333,0.027778,0.133333,0.766667,0,0.038889,0.4333,0.28614,0.644963,0.558,0.418,DENVER,80203,1580 LOGAN STREET SUITE 210
'COLORADO CALVERT ACADEMY',4,6,7,3,6,6,5,7,1,6,180,0,0.033333,0.027778,0.133333,0.766667,0,0.038889,0.4333,0.28614,0.644963,0.558,0.418,DENVER,80203,1580 LOGAN STREET SUITE 210
'CHALLENGE SCHOOL',11,13,13,13,13,13,9,9,8,9,534,0.001873,0.213483,0.071161,0.123596,0.520599,0.003745,0.065543,0.0356,0.320959,0.403297,0.415,0.448,DENVER,80231,9659 EAST MISSISSIPPI AVENUE
'CHALLENGE SCHOOL',12,13,13,13,13,13,9,10,9,7,534,0.001873,0.213483,0.071161,0.123596,0.520599,0.003745,0.065543,0.0356,0.320959,0.403297,0.415,0.448,DENVER,80231,9659 EAST MISSISSIPPI AVENUE
'HOLLY HILLS ELEMENTARY SCHOOL',6,6,5,6,6,6,7,6,6,6,597,0.0067,0.055276,0.130653,0.577889,0.20603,0.00335,0.020101,0.7839,0.282386,0.491655,0.502,0.396,DENVER,80222,6161 EAST CORNELL AVENUE
'ABRAHAM LINCOLN HIGH SCHOOL',5,1,1,3,1,1,7,8,6,7,1903,0.007357,0.0268,0.009984,0.913295,0.037835,0.001051,0.003678,0.9296,0.397311,0.283844,0.087,0.111,DENVER,80219,2285 SOUTH FEDERAL BOULEVARD
'ACADEMIA ANA MARIE SANDOVAL',9,6,6,5,6,6,8,9,10,10,382,0.002618,0.010471,0,0.581152,0.374346,0,0.031414,0.3934,0.412602,0.535813,0.522,0.352,DENVER,80211,3655 WYANDOT STREET
'AMESSE ELEMENTARY SCHOOL',5,1,1,1,3,3,6,9,5,9,583,0.005146,0.003431,0.241852,0.684391,0.034305,0.001715,0.02916,0.9617,0.366887,0.336019,0.113,0.159,DENVER,80239,5440 SCRANTON STREET
'ARCHULETA ELEMENTARY SCHOOL',6,5,3,5,5,5,7,6,7,6,610,0.003279,0.018033,0.134426,0.734426,0.070492,0.008197,0.031148,0.8885,0.366887,0.336019,0.113,0.159,DENVER,80239,16000 MAXWELL PLACE
'ASBURY ELEMENTARY SCHOOL',9,6,6,7,7,6,9,9,9,6,313,0.00639,0.028754,0.079872,0.29393,0.523962,0.003195,0.063898,0.4792,0.226493,0.700401,0.704,0.648,DENVER,80210,1320 EAST ASBURY AVENUE
'ASHLEY ELEMENTARY SCHOOL',3,1,1,1,1,1,5,6,6,3,354,0.00565,0.002825,0.180791,0.728814,0.059322,0,0.022599,0.9624,0.306648,0.660047,0.637,0.601,DENVER,80220,1914 SYRACUSE STREET
'BARNUM ELEMENTARY SCHOOL',6,3,2,3,4,1,7,9,5,9,489,0.00409,0.00818,0.010225,0.932515,0.0409,0,0.00409,0.9387,0.397311,0.283844,0.087,0.111,DENVER,80219,85 HOOKER STREET
'BARRETT ELEMENTARY SCHOOL',5,1,1,1,1,1,6,7,7,5,222,0.009009,0.013514,0.40991,0.504505,0.063063,0,0,0.9471,0.534853,0.403518,0.487,0.249,DENVER,80205,2900 RICHARD ALLEN COURT
'BRADLEY ELEMENTARY SCHOOL',12,7,7,6,7,7,13,13,12,12,521,0.001919,0.024952,0.126679,0.291747,0.497121,0,0.057582,0.5088,0.282386,0.491655,0.502,0.396,DENVER,80222,3051 SOUTH ELM STREET
'BROMWELL ELEMENTARY SCHOOL',12,12,12,13,12,12,9,13,9,6,319,0.003135,0.028213,0.021944,0.125392,0.780564,0,0.040752,0.0909,0.237049,0.759071,0.754,0.667,DENVER,80206,2500 EAST 4TH AVENUE
'BROWN ELEMENTARY SCHOOL',6,6,6,6,6,6,6,6,7,7,494,0.02834,0.048583,0.010121,0.451417,0.423077,0,0.038462,0.5077,0.412602,0.535813,0.522,0.352,DENVER,80211,2550 LOWELL BLVD
'BRUCE RANDOLPH SCHOOL',3,1,1,1,1,1,5,6,5,4,886,0.003386,0.002257,0.085779,0.87246,0.025959,0,0.010158,0.9763,0.534853,0.403518,0.487,0.249,DENVER,80205,3955 STEELE STREET
'BRUCE RANDOLPH SCHOOL',6,1,1,2,1,1,8,9,9,9,886,0.003386,0.002257,0.085779,0.87246,0.025959,0,0.010158,0.9763,0.534853,0.403518,0.487,0.249,DENVER,80205,3955 STEELE STREET
'BRYANT WEBSTER K-8 SCHOOL',6,4,3,5,5,3,8,7,13,7,441,0.00907,0.002268,0.002268,0.954649,0.029478,0,0.002268,0.9567,0.412602,0.535813,0.522,0.352,DENVER,80211,3635 QUIVAS ST
'BRYANT WEBSTER K-8 SCHOOL',6,5,5,5,5,5,9,9,6,9,441,0.00907,0.002268,0.002268,0.954649,0.029478,0,0.002268,0.9567,0.412602,0.535813,0.522,0.352,DENVER,80211,3635 QUIVAS ST
'CARSON ELEMENTARY SCHOOL',10,12,10,12,11,11,9,9,9,5,406,0,0.03202,0.054187,0.135468,0.682266,0,0.096059,0.1606,0.306648,0.660047,0.637,0.601,DENVER,80220,5420 EAST 1ST AVENUE
'CASTRO ELEMENTARY SCHOOL',3,1,1,1,1,3,7,7,6,7,689,0.008708,0.033382,0.020319,0.908563,0.023222,0.002903,0.002903,0.9711,0.397311,0.283844,0.087,0.111,DENVER,80219,845 SOUTH LOWELL BOULEVARD
'CENTENNIAL K-8 SCHOOL',1,3,3,4,5,3,1,1,3,1,530,0.016981,0.020755,0.030189,0.732075,0.186792,0.001887,0.011321,0.8092,0.3257,0.631878,0.64,0.371,DENVER,80212,4665 RALEIGH STREET
'CENTENNIAL K-8 SCHOOL',5,3,4,3,3,4,6,6,6,6,530,0.016981,0.020755,0.030189,0.732075,0.186792,0.001887,0.011321,0.8092,0.3257,0.631878,0.64,0.371,DENVER,80212,4665 RALEIGH STREET
'CESAR CHAVEZ ACADEMY DENVER',5,5,5,6,6,1,6,6,3,6,438,0.009132,0.004566,0.009132,0.878995,0.091324,0,0.006849,0.8311,0.3257,0.631878,0.64,0.371,DENVER,80212,3752 TENNYSON STREET
'CESAR CHAVEZ ACADEMY DENVER',6,3,3,3,3,5,6,9,7,6,438,0.009132,0.004566,0.009132,0.878995,0.091324,0,0.006849,0.8311,0.3257,0.631878,0.64,0.371,DENVER,80212,3752 TENNYSON STREET
'CHARLES M. SCHENCK (CMS) COMMUNITY SCHOOL',6,2,1,1,3,1,9,12,6,11,702,0.004274,0.027066,0.009972,0.915954,0.034188,0,0.008547,0.9688,0.397311,0.283844,0.087,0.111,DENVER,80219,1300 SOUTH LOWELL BOULEVARD
'CHELTENHAM ELEMENTARY SCHOOL',5,1,1,1,1,1,6,7,7,9,539,0.009276,0.005566,0.068646,0.836735,0.057514,0,0.022263,0.9811,0.564974,0.288468,0.266,0.19,DENVER,80204,1580 JULIAN STREET
'COLE ARTS AND SCIENCE ACADEMY',3,1,1,1,1,1,5,5,7,4,632,0.017405,0.003165,0.193038,0.693038,0.056962,0.001582,0.03481,0.9606,0.534853,0.403518,0.487,0.249,DENVER,80205,3240 HUMBOLDT STREET
'COLE ARTS AND SCIENCE ACADEMY',6,1,1,2,1,3,12,11,10,10,632,0.017405,0.003165,0.193038,0.693038,0.056962,0.001582,0.03481,0.9606,0.534853,0.403518,0.487,0.249,DENVER,80205,3240 HUMBOLDT STREET
'COLFAX ELEMENTARY SCHOOL',5,3,2,2,4,3,6,7,5,6,420,0.021429,0.007143,0.059524,0.811905,0.07619,0,0.02381,0.9822,0.564974,0.288468,0.266,0.19,DENVER,80204,1526 TENNYSON STREET
'COLLEGE VIEW ELEMENTARY SCHOOL',3,2,2,1,1,2,5,6,5,6,465,0.04086,0.113978,0.03871,0.746237,0.047312,0.006452,0.006452,0.9602,0.397311,0.283844,0.087,0.111,DENVER,80219,2675 SOUTH DECATUR STREET
'CORY ELEMENTARY SCHOOL',13,12,12,12,12,10,12,10,12,12,364,0,0.021978,0.021978,0.137363,0.793956,0.002747,0.021978,0.0852,0.226493,0.700401,0.704,0.648,DENVER,80210,1550 SOUTH STEELE STREET
'COWELL ELEMENTARY SCHOOL',6,2,1,1,3,1,7,9,6,8,519,0.025048,0.007707,0.038536,0.894027,0.026975,0,0.007707,0.9806,0.564974,0.288468,0.266,0.19,DENVER,80204,4540 WEST 10TH AVENUE
'DCIS AT MONTBELLO',5,3,3,4,1,6.718607,7,5,10,6,230,0.008696,0.026087,0.2,0.695652,0.026087,0.004348,0.03913,0.8826,0.366887,0.336019,0.113,0.159,DENVER,80239,5000 CROWN BLVD
'DENISON MONTESSORI SCHOOL',7,6,6,4,6,6,9,12,6,12,470,0.004255,0.046809,0.010638,0.693617,0.22766,0,0.017021,0.6302,0.397311,0.283844,0.087,0.111,DENVER,80219,1821 SOUTH YATES STREET
'DENVER CENTER FOR INTERNATIONAL STUDIES',7,9,8,8,9,9,6,6,5,9,695,0.028777,0.071942,0.071942,0.461871,0.332374,0,0.033094,0.4245,0.564974,0.288468,0.266,0.19,DENVER,80204,574 WEST 6TH AVE
'DENVER CENTER FOR INTERNATIONAL STUDIES',9,7,8,6,7,5,9,9,6,9,695,0.028777,0.071942,0.071942,0.461871,0.332374,0,0.033094,0.4245,0.564974,0.288468,0.266,0.19,DENVER,80204,574 WEST 6TH AVE
'DENVER GREEN SCHOOL',3,6,6,6,6,6.718607,6,4,6,3,339,0.0059,0.047198,0.215339,0.289086,0.39528,0.00295,0.044248,0.5831,0.321125,0.485595,0.494,0.536,DENVER,80224,6700 EAST VIRGINIA AVENUE
'DENVER GREEN SCHOOL',9,6,6,5,5,6.718607,12,12,8,12,339,0.0059,0.047198,0.215339,0.289086,0.39528,0.00295,0.044248,0.5831,0.321125,0.485595,0.494,0.536,DENVER,80224,6700 EAST VIRGINIA AVENUE
'DENVER SCHOOL OF THE ARTS',6,11,12,9,12,11,5,6,3,6,1051,0.001903,0.047574,0.078972,0.154139,0.643197,0.000951,0.073264,0.1446,0.306648,0.660047,0.637,0.601,DENVER,80220,7111 MONTVIEW BLVD
'DENVER SCHOOL OF THE ARTS',12,12,12,10,12,12,9,9,8,9,1051,0.001903,0.047574,0.078972,0.154139,0.643197,0.000951,0.073264,0.1446,0.306648,0.660047,0.637,0.601,DENVER,80220,7111 MONTVIEW BLVD
'DOULL ELEMENTARY SCHOOL',7,3,2,3,3,1,12,10,8,12,522,0.005747,0.021073,0.01341,0.885057,0.059387,0,0.015326,0.9544,0.397311,0.283844,0.087,0.111,DENVER,80219,2520 SOUTH UTICA STREET
'DSST: COLE',10,6,6,8,6,6.718607,12,12,13,12,140,0.007143,0.042857,0.207143,0.55,0.164286,0,0.028571,0.7357,0.534853,0.403518,0.487,0.249,DENVER,80205,3240 HUMBOLT STREET
'DSST: GREEN VALLEY RANCH',12,7,6,8,6,6.718607,12,12,13,11,524.635307,0.008429,0.025491,0.038747,0.31313,0.584178,0.001912,0.028113,0.444057,0.288495,0.548542,0.25,0.276,DENVER,80249,4800 TELLURIDE STREET #4
'DSST: STAPLETON',12,10,9,11,10,12,12,12,12,13,524.635307,0.008429,0.025491,0.038747,0.31313,0.584178,0.001912,0.028113,0.444057,0.309685,0.633075,0.172,0.378,DENVER,80235,2000 VALENCIA STREET
'DSST: STAPLETON',13,12,12,13,9,12,12,11,13,9,524.635307,0.008429,0.025491,0.038747,0.31313,0.584178,0.001912,0.028113,0.444057,0.309685,0.633075,0.172,0.378,DENVER,80235,2000 VALENCIA STREET
'EAGLETON ELEMENTARY SCHOOL',6,3,1,3,3,2,9,5,9,12,384,0.010417,0,0.010417,0.924479,0.049479,0,0.005208,0.9492,0.564974,0.288468,0.266,0.19,DENVER,80204,880 HOOKER STREET
'ELLIS ELEMENTARY SCHOOL',6,5,3,5,5,6,7,9,3,8,619,0.003231,0.053312,0.12601,0.531502,0.252019,0.001616,0.03231,0.9047,0.282386,0.491655,0.502,0.396,DENVER,80222,1651 SOUTH DAHLIA STREET
'ESCUELA TLATELOLCO SCHOOL',1,1,1,1,1,1,1,2,1,3,127,0,0.007874,0,0.952756,0.031496,0,0.007874,0.7323,0.412602,0.535813,0.522,0.352,DENVER,80211,2949 NORTH FEDERAL BOULEVARD
'ESCUELA TLATELOLCO SCHOOL',1,1,1,1,1,1,6,6,6,6,127,0,0.007874,0,0.952756,0.031496,0,0.007874,0.7323,0.412602,0.535813,0.522,0.352,DENVER,80211,2949 NORTH FEDERAL BOULEVARD
'FAIRMONT K-8 SCHOOL',3,1,1,1,1,1,6,5,6,6,384,0.007813,0.002604,0.013021,0.885417,0.083333,0,0.007813,0.9821,0.409188,0.322414,0.224,0.178,DENVER,80223,520 WEST 3RD AVENUE
'FAIRMONT K-8 SCHOOL',6,1,1,3,2,1,9,6,7,12,384,0.007813,0.002604,0.013021,0.885417,0.083333,0,0.007813,0.9821,0.409188,0.322414,0.224,0.178,DENVER,80223,520 WEST 3RD AVENUE
'FAIRVIEW ELEMENTARY SCHOOL',6,1,1,1,1,6,9,10,9,11,366,0.005464,0.043716,0.002732,0.838798,0.101093,0,0.008197,0.884,0.378916,0.403135,0.106,0.107,DENVER,80204,2715 WEST 11TH AVENUE
'FORCE ELEMENTARY SCHOOL',6,3,3,2,4,3,9,8,12,12,557,0.007181,0.008977,0.014363,0.904847,0.061041,0,0.003591,0.9612,0.397311,0.283844,0.087,0.111,DENVER,80219,1550 SOUTH WOLFF STREET
'FRED N THOMAS CAREER EDUCATION CENTER',9,7,9,6,6,6,9,10,6,9,387,0.005168,0.02584,0.02584,0.870801,0.067183,0,0.005168,0.8863,0.412602,0.535813,0.522,0.352,DENVER,80211,2650 ELIOT STREET
'GARDEN PLACE ELEMENTARY SCHOOL',6,1,1,3,1,1,9,6,12,9,390,0.015385,0,0.017949,0.920513,0.041026,0,0.005128,0.9793,0.373727,0.211454,0.078,0.084,DENVER,80216,4425 LINCOLN STREET
'GEORGE WASHINGTON HIGH SCHOOL',5,5,5,7,5,6,6,7,5,9,1510,0.004636,0.043046,0.362252,0.288079,0.247682,0.002649,0.051656,0.5444,0.321125,0.485595,0.494,0.536,DENVER,80224,655 SOUTH MONACO PKWY
'GILPIN ELEMENTARY SCHOOL',2,1,1,1,1,1,5,6,5,6,280,0.007143,0.007143,0.25,0.478571,0.207143,0,0.05,0.8398,0.534853,0.403518,0.487,0.249,DENVER,80205,2949 CALIFORNIA STREET
'GIRLS ATHLETIC LEADERSHIP SCHOOL',9,6,6,6,6,6,9,10,6,11,176,0.011364,0.028409,0.136364,0.363636,0.409091,0,0.051136,0.5114,0.190007,0.818793,0.783,0.661,DENVER,80209,200 SOUTH UNIVERSITY BLVD
'GODSMAN ELEMENTARY SCHOOL',6,2,2,1,2,3,9,9,8,9,486,0,0.022634,0.004115,0.919753,0.041152,0.004115,0.00823,0.9692,0.409188,0.322414,0.224,0.178,DENVER,80223,2120 WEST ARKANSAS AVENUE
'GOLDRICK ELEMENTARY SCHOOL',6,3,3,4,3,5,7,6,9,6,628,0,0.046178,0.02707,0.883758,0.038217,0,0.004777,0.9615,0.409188,0.322414,0.224,0.178,DENVER,80223,1050 SOUTH ZUNI STREET
'GRANT MIDDLE SCHOOL',5,3,2,5,2,5,7,6,9,6,413,0.004843,0.024213,0.041162,0.731235,0.184019,0,0.014528,0.8499,0.226493,0.700401,0.704,0.648,DENVER,80210,1751 SOUTH WASHINGTON STREET
'GRANT RANCH K-8 SCHOOL',7,6,6,6,6,5,8,9,6,6,799,0.006258,0.0801,0.025031,0.480601,0.370463,0.003755,0.033792,0.5373,0.171098,0.747126,0.487,0.473,DENVER,80123,5400 SOUTH JAY CIRCLE
'GRANT RANCH K-8 SCHOOL',9,6,6,7,6,6,9,9,8,8,799,0.006258,0.0801,0.025031,0.480601,0.370463,0.003755,0.033792,0.5373,0.171098,0.747126,0.487,0.473,DENVER,80123,5400 SOUTH JAY CIRCLE
'GREEN VALLEY ELEMENTARY SCHOOL',10,5,5,6,5,5,12,12,13,11,619,0.006462,0.048465,0.331179,0.484653,0.084006,0.011309,0.033926,0.8073,0.288495,0.548542,0.25,0.276,DENVER,80249,4100 JERICHO
'GREENLEE ELEMENTARY SCHOOL',3,1,2,1,1,1,6,3,5,3,461,0.010846,0.021692,0.299349,0.590022,0.065076,0.002169,0.010846,0.9504,0.564974,0.288468,0.266,0.19,DENVER,80204,1150 LIPAN STREET
'GREENWOOD ECE-8',5,3,2,3,3,2,8,6,9,7,637,0.00157,0.026688,0.1146,0.828885,0.015699,0,0.012559,0.9419,0.366887,0.336019,0.113,0.159,DENVER,80239,5130 DURHAM COURT
'GREENWOOD ECE-8',7,6,5,6,6,5,9,9,10,9,637,0.00157,0.026688,0.1146,0.828885,0.015699,0,0.012559,0.9419,0.366887,0.336019,0.113,0.159,DENVER,80239,5130 DURHAM COURT
'GUST ELEMENTARY SCHOOL',7,6,5,6,5,5,10,8,12,6,643,0.006221,0.055988,0.018663,0.825816,0.085537,0,0.007776,0.94,0.397311,0.283844,0.087,0.111,DENVER,80219,3440 WEST YALE AVENUE
'HALLETT FUNDAMENTAL ACADEMY',9,5,5,5,5,2,9,9,9,9,360,0.002778,0.002778,0.686111,0.236111,0.036111,0,0.036111,0.9031,0.434398,0.51586,0.575,0.352,DENVER,80207,2950 JASMINE STREET
'HAMILTON MIDDLE SCHOOL',6,7,7,7,8,8,7,9,6,9,921,0.004343,0.036916,0.168295,0.317047,0.415852,0.006515,0.051031,0.4951,0.320959,0.403297,0.415,0.448,DENVER,80231,8600 EAST DARTMOUTH AVENUE
'HARRINGTON ELEMENTARY SCHOOL',6,1,1,1,1,1,7,6,8,8,470,0.006383,0.004255,0.144681,0.782979,0.038298,0,0.023404,0.9668,0.534853,0.403518,0.487,0.249,DENVER,80205,2401 EAST 37TH AVENUE
'HENRY WORLD SCHOOL GRADES 6-8',6,5,3,6,5,6,6,6,6,8,907,0.007718,0.077178,0.023153,0.724366,0.141125,0.011025,0.015436,0.8093,0.315042,0.560951,0.364,0.357,DENVER,80227,3005 SOUTH GOLDEN WAY
'HIGHLINE ACADEMY CHARTER SCHOOL',9,8,9,7,8,6,9,9,6,10,498,0.002008,0.03012,0.269076,0.156627,0.51004,0.002008,0.03012,0.3173,0.320959,0.403297,0.415,0.448,DENVER,80231,7808 CHERRY CREEK SOUTH DRIVE
'HIGHLINE ACADEMY CHARTER SCHOOL',11,9,9,9,11,6,12,12,7,13,498,0.002008,0.03012,0.269076,0.156627,0.51004,0.002008,0.03012,0.3173,0.320959,0.403297,0.415,0.448,DENVER,80231,7808 CHERRY CREEK SOUTH DRIVE
'HILL CAMPUS OF ARTS AND SCIENCES',8,6,5,6,6,6,9,7,9,9,875,0.004571,0.024,0.208,0.315429,0.409143,0.001143,0.037714,0.5337,0.306648,0.660047,0.637,0.601,DENVER,80220,451 CLERMONT STREET
'HOLM ELEMENTARY SCHOOL',6,6,5,6,6,6,7,9,6,7,656,0.010671,0.033537,0.17378,0.564024,0.17378,0.007622,0.036585,0.8391,0.320959,0.403297,0.415,0.448,DENVER,80231,3185 SOUTH WILLOW COURT
'HOWELL K-8 SCHOOL',5,3,3,2,3,1,6,8,5,6,847,0.001181,0.003542,0.145218,0.809917,0.016529,0.001181,0.022432,0.9439,0.366887,0.336019,0.113,0.159,DENVER,80239,14250 EAST ALBROOK DRIVE
'HOWELL K-8 SCHOOL',6,2,1,4,1,3,9,9,9,10,847,0.001181,0.003542,0.145218,0.809917,0.016529,0.001181,0.022432,0.9439,0.366887,0.336019,0.113,0.159,DENVER,80239,14250 EAST ALBROOK DRIVE
'JOHN F KENNEDY HIGH SCHOOL',5,4,4,5,4,3,6,8,6,6,1197,0.012531,0.077694,0.023392,0.690058,0.177945,0.002506,0.015873,0.6892,0.315042,0.560951,0.364,0.357,DENVER,80227,2855 SOUTH LAMAR STREET
'KAISER ELEMENTARY SCHOOL',6,5,5,4,6,5,7,9,8,5,325,0.012308,0.043077,0.018462,0.664615,0.24,0,0.021538,0.8817,0.398075,0.529912,0.232,0.209,DENVER,80236,4500 SOUTH QUITMAN STREET
'KEPNER MIDDLE SCHOOL',4,1,1,3,1,1,6,6,6,6,1176,0.007653,0.016156,0.013605,0.926871,0.028061,0.00085,0.006803,0.977,0.397311,0.283844,0.087,0.111,DENVER,80219,911 SOUTH HAZEL COURT
'KIPP DENVER COLLEGIATE HIGH SCHOOL',7,5,5,6,5,6,11,10,9,12,330,0.015152,0.009091,0.00303,0.936364,0.024242,0,0.012121,0.9394,0.409188,0.322414,0.224,0.178,DENVER,80223,451 SOUTH TEJON STREET
'KIPP MONTBELLO COLLEGE PREP',6,1,1,3,1,3,9,7,13,5,99,0,0.010101,0.252525,0.626263,0.070707,0,0.040404,0.9495,0.366887,0.336019,0.113,0.159,DENVER,80239,5290 KITTERIDGE STREET
'KIPP SUNSHINE PEAK ACADEMY',8,3,1,5,5,5,13,9,12,12,373,0.002681,0.013405,0.005362,0.975871,0,0,0.002681,0.9786,0.409188,0.322414,0.224,0.178,DENVER,80223,375 S TEJON STREET
'KIPP SUNSHINE PEAK ACADEMY',12,6,5,7,6,6,13,12,13,12,373,0.002681,0.013405,0.005362,0.975871,0,0,0.002681,0.9786,0.409188,0.322414,0.224,0.178,DENVER,80223,375 S TEJON STREET
'KNAPP ELEMENTARY SCHOOL',6,3,2,3,3,1,12,9,9,12,666,0.004505,0.003003,0.006006,0.944444,0.039039,0,0.003003,0.9967,0.397311,0.283844,0.087,0.111,DENVER,80219,500 SOUTH UTICA STREET
'KUNSMILLER CREATIVE ARTS ACADEMY',5,4,3,3,5,5,6,6,6,6,758,0.006596,0.032982,0.031662,0.759894,0.153034,0,0.015831,0.81,0.397311,0.283844,0.087,0.111,DENVER,80219,2250 SOUTH QUITMAN WAY
'KUNSMILLER CREATIVE ARTS ACADEMY',5,3,3,3,4,2,6,6,6,9,758,0.006596,0.032982,0.031662,0.759894,0.153034,0,0.015831,0.81,0.397311,0.283844,0.087,0.111,DENVER,80219,2250 SOUTH QUITMAN WAY
'LAKE INTERNATIONAL SCHOOL',4,3,1,3,2,6.718607,6,6,5,6,292,0.013699,0.017123,0.034247,0.869863,0.061644,0.003425,0,0.9658,0.564974,0.288468,0.266,0.19,DENVER,80204,1820 LOWELL BLVD
'LOWRY ELEMENTARY SCHOOL',6,6,6,6,6,6,6,6,6,3,505,0.005941,0.043564,0.192079,0.20198,0.514851,0.00198,0.039604,0.3941,0.329201,0.693909,0.787,0.683,DENVER,80230,8001 EAST CEDAR AVENUE
'MANUAL HIGH SCHOOL',3,1,1,3,1,1,6,5,7,6,359,0,0,0.320334,0.62117,0.030641,0,0.027855,0.9248,0.534853,0.403518,0.487,0.249,DENVER,80205,1700 EAST 28TH AVENUE
'MARRAMA ELEMENTARY SCHOOL',6,5,5,4,6,4,7,5,5,8,548,0,0.04927,0.30292,0.505474,0.091241,0.007299,0.043796,0.836,0.288495,0.548542,0.25,0.276,DENVER,80249,19100 EAST 40TH AVENUE
'MARTIN LUTHER KING JR. EARLY COLLEGE',5,1,1,1,1,1,6,5,6,9,1217,0.001643,0.041085,0.238291,0.651602,0.032046,0.00493,0.030403,0.8718,0.288495,0.548542,0.25,0.276,DENVER,80249,19535 EAST 46TH AVENUE
'MARTIN LUTHER KING JR. EARLY COLLEGE',9,5,5,5,3,4,9,10,9,9,1217,0.001643,0.041085,0.238291,0.651602,0.032046,0.00493,0.030403,0.8718,0.288495,0.548542,0.25,0.276,DENVER,80249,19535 EAST 46TH AVENUE
'MATHEMATICS AND SCIENCE LEADERSHIP ACADEMY',1,3,2,3,2,6.718607,5,6,3,1,254,0.003937,0.003937,0.019685,0.937008,0.035433,0,0,0.9449,0.409188,0.322414,0.224,0.178,DENVER,80223,451 SOUTH TEJON STREET
'MAXWELL ELEMENTARY SCHOOL',5,1,2,1,3,2,7,9,5,6,511,0.005871,0.011742,0.183953,0.745597,0.039139,0,0.013699,0.9397,0.366887,0.336019,0.113,0.159,DENVER,80239,14390 EAST BOLLING DRIVE
'MC KINLEY-THATCHER ELEMENTARY SCHOOL',8,5,5,5,5,6,10,12,9,9,216,0.009259,0.027778,0.074074,0.467593,0.342593,0.00463,0.074074,0.665,0.226493,0.700401,0.704,0.648,DENVER,80210,1230 SOUTH GRANT STREET
'MC MEEN ELEMENTARY SCHOOL',10,6,6,6,6,6,13,13,9,13,609,0.003284,0.037767,0.270936,0.415435,0.233169,0.003284,0.036125,0.8848,0.282386,0.491655,0.502,0.396,DENVER,80222,1000 SOUTH HOLLY STREET
'MCGLONE ELEMENTARY SCHOOL',7,1,1,1,1,3,12,12,13,10,524.635307,0.008429,0.025491,0.038747,0.31313,0.584178,0.001912,0.028113,0.444057,0.366887,0.336019,0.113,0.159,DENVER,80239,4500 CROWN BOULEVARD
'MERRILL MIDDLE SCHOOL',6,2,1,4,2,2,9,9,9,8,535,0.031776,0.147664,0.173832,0.368224,0.241121,0.003738,0.033645,0.8187,0.226493,0.700401,0.704,0.648,DENVER,80210,1551 SOUTH MONROE STREET
'MONTBELLO HIGH SCHOOL',1,1,1,1,1,1,6,6,6,5,1228,0.004886,0.015472,0.238599,0.685668,0.030945,0.004072,0.020358,0.8567,0.366887,0.336019,0.113,0.159,DENVER,80239,5000 CROWN BOULEVARD
'MONTCLAIR ELEMENTARY SCHOOL',8,6,6,5,6,6,9,12,8,12,487,0.00616,0.014374,0.299795,0.256674,0.361396,0.00616,0.055441,0.597,0.306648,0.660047,0.637,0.601,DENVER,80220,1151 NEWPORT STREET
'MOORE K-8 SCHOOL',9,6,6,5,6,5,9,12,12,7,488,0.022541,0.014344,0.233607,0.372951,0.313525,0,0.043033,0.7706,0.308586,0.735062,0.619,0.534,DENVER,80218,846 CORONA STREET
'MOORE K-8 SCHOOL',6,4,5,3,4,5,6,7,6,7,488,0.022541,0.014344,0.233607,0.372951,0.313525,0,0.043033,0.7706,0.308586,0.735062,0.619,0.534,DENVER,80218,846 CORONA STREET
'MOREY MIDDLE SCHOOL',9,8,6,9,9,7,9,9,7,12,735,0.001361,0.02449,0.287075,0.27619,0.356463,0.001361,0.053061,0.5306,0.308586,0.735062,0.619,0.534,DENVER,80218,840 EAST 14TH AVENUE
'MUNROE ELEMENTARY SCHOOL',1,3,2,3,3,1,6,6,3,6,611,0.013093,0.016367,0.016367,0.93126,0.01964,0,0.003273,0.9769,0.397311,0.283844,0.087,0.111,DENVER,80219,3440 WEST VIRGINIA AVENUE
'NEWLON ELEMENTARY SCHOOL',10,5,3,5,5,1,12,13,9,13,567,0.007055,0.008818,0,0.954145,0.028219,0,0.001764,0.9589,0.397311,0.283844,0.087,0.111,DENVER,80219,361 VRAIN STREET
'NOEL COMMUNITY ARTS SCHOOL',6,1,1,3,1,6.718607,9,6,12,6,187,0,0.010695,0.31016,0.593583,0.037433,0.010695,0.037433,0.9198,0.366887,0.336019,0.113,0.159,DENVER,80239,5290 KITTERIDGE STREET
'NOEL MIDDLE SCHOOL',3,1,1,1,1,1,5,4,3,6,433,0,0.002309,0.267898,0.692841,0.027714,0.004619,0.004619,0.9584,0.366887,0.336019,0.113,0.159,DENVER,80239,5290 KITTERIDGE STREET
'NORTH HIGH SCHOOL',3,2,3,1,3,3,8,6,6,10,937,0.013874,0.008538,0.037353,0.865528,0.0619,0.001067,0.01174,0.8431,0.412602,0.535813,0.522,0.352,DENVER,80211,2960 NORTH SPEER BOULEVARD
'NORTHEAST ACADEMY CHARTER SCHOOL',1,1,1,1,1,1,4,3,3,6,385,0.002597,0.002597,0.467532,0.446753,0.033766,0.002597,0.044156,0.8753,0.366887,0.336019,0.113,0.159,DENVER,80239,4895 PEORIA STREET
'NORTHEAST ACADEMY CHARTER SCHOOL',6,1,2,1,2,1,10,12,5,12,385,0.002597,0.002597,0.467532,0.446753,0.033766,0.002597,0.044156,0.8753,0.366887,0.336019,0.113,0.159,DENVER,80239,4895 PEORIA STREET
'ODYSSEY CHARTER ELEMENTARY SCHOOL',6,7,6,7,7,7,5,7,1,6,225,0,0.026667,0.12,0.151111,0.56,0,0.142222,0.3511,0.434398,0.51586,0.575,0.352,DENVER,80207,6550 EAST 21ST AVENUE
'ODYSSEY CHARTER ELEMENTARY SCHOOL',11,9,10,9,9,8,11,9,10,12,225,0,0.026667,0.12,0.151111,0.56,0,0.142222,0.3511,0.434398,0.51586,0.575,0.352,DENVER,80207,6550 EAST 21ST AVENUE
'OMAR D BLAIR CHARTER SCHOOL',9,6,6,6,6,6,9,9,8,9,783,0,0.086845,0.320562,0.385696,0.146871,0,0.060026,0.5683,0.288495,0.548542,0.25,0.276,DENVER,80249,4905 CATHAY STREET
'OMAR D BLAIR CHARTER SCHOOL',8,6,5,6,6,5,9,9,9,9,783,0,0.086845,0.320562,0.385696,0.146871,0,0.060026,0.5683,0.288495,0.548542,0.25,0.276,DENVER,80249,4905 CATHAY STREET
'ONLINE HIGH SCHOOL',2,5,6,1,5,5,4,4,6,3,97,0.020619,0.010309,0.14433,0.309278,0.443299,0.020619,0.051546,0.2887,0.28614,0.644963,0.558,0.418,DENVER,80203,900 GRANT STREET
'PALMER ELEMENTARY SCHOOL',9,6,6,5,6,3,12,10,12,12,312,0,0.022436,0.346154,0.214744,0.355769,0.003205,0.057692,0.6416,0.306648,0.660047,0.637,0.601,DENVER,80220,995 GRAPE STREET
'PARK HILL SCHOOL',10,7,6,6,9,9,11,10,11,9,514,0.007782,0.021401,0.153696,0.153696,0.570039,0.001946,0.09144,0.3032,0.306648,0.660047,0.637,0.601,DENVER,80220,5050 EAST 19TH AVENUE
'PIONEER CHARTER SCHOOL',6,2,1,1,3,2,8,9,7,9,393,0,0.002545,0.061069,0.913486,0.017812,0.002545,0.002545,0.9235,0.534853,0.403518,0.487,0.249,DENVER,80205,3230 EAST 38TH AVENUE
'PIONEER CHARTER SCHOOL',6,4,2,5,5,6.718607,6,9,6,9,393,0,0.002545,0.061069,0.913486,0.017812,0.002545,0.002545,0.9235,0.534853,0.403518,0.487,0.249,DENVER,80205,3230 EAST 38TH AVENUE
'PITT-WALLER K-8 SCHOOL',6,3,4,3,4,3,7,6,5,7,968,0.009298,0.079545,0.349174,0.410124,0.091942,0.004132,0.055785,0.7367,0.288495,0.548542,0.25,0.276,DENVER,80249,21601 EAST 51ST PLACE
'PITT-WALLER K-8 SCHOOL',9,5,4,5,6,4,12,9,9,12,968,0.009298,0.079545,0.349174,0.410124,0.091942,0.004132,0.055785,0.7367,0.288495,0.548542,0.25,0.276,DENVER,80249,21601 EAST 51ST PLACE
'PLACE BRIDGE ACADEMY',7,3,1,3,3,5,12,12,12,10,1045,0.006699,0.240191,0.247847,0.386603,0.088995,0.007656,0.02201,0.9492,0.321125,0.485595,0.494,0.536,DENVER,80224,7125 CHERRY CREEK DRIVE NORTH
'PLACE BRIDGE ACADEMY',6,1,1,1,1,4,9,7,9,7,1045,0.006699,0.240191,0.247847,0.386603,0.088995,0.007656,0.02201,0.9492,0.321125,0.485595,0.494,0.536,DENVER,80224,7125 CHERRY CREEK DRIVE NORTH
'POLARIS AT EBERT ELEMENTARY SCHOOL',13,13,13,13,13,13,13,12,10,13,332,0,0.03012,0.027108,0.090361,0.774096,0,0.078313,0.0783,0.534853,0.403518,0.487,0.249,DENVER,80205,410 PARK AVENUE WEST
'SABIN WORLD SCHOOL',6,5,5,5,5,5,8,6,9,7,703,0.004267,0.046942,0.01707,0.746799,0.156472,0.002845,0.025605,0.8435,0.398075,0.529912,0.232,0.209,DENVER,80236,3050 SOUTH VRAIN STREET
'SAMUELS ELEMENTARY SCHOOL',6,5,5,5,5,4,7,6,8,8,615,0.00813,0.086179,0.213008,0.447154,0.219512,0,0.026016,0.7621,0.331252,0.65101,0.647,0.564,DENVER,80237,3985 SOUTH VINCENNES COURT
'SCHMITT ELEMENTARY SCHOOL',6,3,4,2,5,3,6,6,7,7,420,0.004762,0.085714,0.057143,0.802381,0.042857,0,0.007143,0.9491,0.409188,0.322414,0.224,0.178,DENVER,80223,1820 SOUTH VALLEJO STREET
'SKINNER MIDDLE SCHOOL',7,5,5,6,5,5,10,12,9,9,370,0.016216,0.008108,0.010811,0.802703,0.148649,0,0.013514,0.8649,0.412602,0.535813,0.522,0.352,DENVER,80211,3435 WEST 40TH AVENUE
'SLAVENS K-8 SCHOOL',13,12,12,13,12,12,11,9,12,9,510,0.001961,0.02549,0.011765,0.076471,0.833333,0,0.05098,0.0824,0.226493,0.700401,0.704,0.648,DENVER,80210,3000 SOUTH CLAYTON STREET
'SLAVENS K-8 SCHOOL',13,12,12,13,12,12,12,12,12,12,510,0.001961,0.02549,0.011765,0.076471,0.833333,0,0.05098,0.0824,0.226493,0.700401,0.704,0.648,DENVER,80210,3000 SOUTH CLAYTON STREET
'SMILEY MIDDLE SCHOOL',5,3,3,5,2,3,6,7,7,6,246,0.004065,0.01626,0.51626,0.288618,0.117886,0,0.056911,0.8333,0.434398,0.51586,0.575,0.352,DENVER,80207,2540 HOLLY STREET
'SMITH ELEMENTARY SCHOOL',3,1,1,1,1,1,5,6,6,6,410,0.009756,0,0.404878,0.541463,0.026829,0,0.017073,0.9849,0.434398,0.51586,0.575,0.352,DENVER,80207,3590 JASMINE STREET
'SOUTHMOOR ELEMENTARY SCHOOL',9,10,9,9,9,10,9,11,6,7,487,0.004107,0.061602,0.104723,0.176591,0.591376,0.002053,0.059548,0.3126,0.331252,0.65101,0.647,0.564,DENVER,80237,3755 SOUTH MAGNOLIA WAY
'SOUTHWEST EARLY COLLEGE CHARTER SCHOOL',3,3,3,3,2,2,6,6,5,6,295,0.010169,0.013559,0.027119,0.854237,0.088136,0,0.00678,0.7898,0.398075,0.529912,0.232,0.209,DENVER,80236,3001 SOUTH FEDERAL BOULEVARD
'STECK ELEMENTARY SCHOOL',13,13,13,13,13,12,13,12,12,12,375,0,0.029333,0.029333,0.114667,0.773333,0,0.053333,0.1014,0.306648,0.660047,0.637,0.601,DENVER,80220,425 ASH STREET
'STEDMAN ELEMENTARY SCHOOL',6,3,3,3,4,2,9,10,9,7,339,0.00295,0.00885,0.522124,0.368732,0.070796,0,0.026549,0.8961,0.434398,0.51586,0.575,0.352,DENVER,80207,2940 DEXTER STREET
'SWANSEA ELEMENTARY SCHOOL',6,1,1,1,3,2,6,9,6,9,555,0.009009,0,0.010811,0.944144,0.034234,0.001802,0,0.9654,0.373727,0.211454,0.078,0.084,DENVER,80216,4650 COLUMBINE STREET
'TELLER ELEMENTARY SCHOOL',6,6,6,6,7,6,6,9,3,8,461,0.004338,0.030369,0.08243,0.195228,0.603037,0,0.084599,0.3664,0.237049,0.759071,0.754,0.667,DENVER,80206,1150 GARFIELD STREET
'THOMAS JEFFERSON HIGH SCHOOL',5,6,6,6,6,6,6,6,6,6,1048,0.010496,0.026718,0.241412,0.291985,0.372137,0.002863,0.054389,0.5353,0.331252,0.65101,0.647,0.564,DENVER,80237,3950 SOUTH HOLLY STREET
'TRAYLOR ELEMENTARY SCHOOL',6,6,6,6,6,5,6,5,5,6,597,0.00335,0.055276,0.01005,0.685092,0.20603,0.01005,0.030151,0.6776,0.315042,0.560951,0.364,0.357,DENVER,80227,2900 SOUTH IVAN WAY
'TREVISTA ECE-8 AT HORACE MANN',1,1,1,1,1,2,5,6,2,6,587,0.028961,0.005111,0.07155,0.834753,0.0477,0,0.011925,0.9651,0.412602,0.535813,0.522,0.352,DENVER,80211,4130 NAVAJO STREET
'TREVISTA ECE-8 AT HORACE MANN',6,1,1,3,1,1,11,9,10,10,587,0.028961,0.005111,0.07155,0.834753,0.0477,0,0.011925,0.9651,0.412602,0.535813,0.522,0.352,DENVER,80211,4130 NAVAJO STREET
'UNIVERSITY PARK ELEMENTARY SCHOOL',12,9,8,9,9,9,12,10,9,12,425,0.007059,0.063529,0.049412,0.167059,0.642353,0.004706,0.065882,0.3035,0.226493,0.700401,0.704,0.648,DENVER,80210,2300 SOUTH ST PAUL STREET
'VALDEZ ELEMENTARY SCHOOL',7,1,1,1,1,1,9,13,6,12,361,0.00277,0.00277,0.00831,0.728532,0.240997,0,0.01662,0.7472,0.412602,0.535813,0.522,0.352,DENVER,80211,2525 WEST 29 AVENUE
'VALVERDE ELEMENTARY SCHOOL',5,1,1,1,3,5,6,6,6,11,394,0.005076,0.015228,0.071066,0.883249,0.022843,0,0.002538,0.9913,0.409188,0.322414,0.224,0.178,DENVER,80223,2030 WEST ALAMEDA AVENUE
'VENTURE PREP',5,2,2,2,1,5,6,6,6,6,417,0,0.009592,0.426859,0.458034,0.076739,0.002398,0.026379,0.8825,0.434398,0.51586,0.575,0.352,DENVER,80207,2540 HOLLY STREET
'VENTURE PREP',6,2,1,3,2,1,12,7,13,9,417,0,0.009592,0.426859,0.458034,0.076739,0.002398,0.026379,0.8825,0.434398,0.51586,0.575,0.352,DENVER,80207,2540 HOLLY STREET
'WEST DENVER PREP - HIGHLAND CAMPUS',11,6,4,7,6,6.718607,13,13,13,13,222,0.013514,0.009009,0.018018,0.905405,0.040541,0,0.013514,0.9234,0.412602,0.535813,0.522,0.352,DENVER,80211,2417 WEST 29TH AVE
'WEST DENVER PREP - LAKE CAMPUS',10,5,3,6,4,6.718607,12,11,13,12,240,0.008333,0.0125,0.066667,0.858333,0.054167,0,0,0.9417,0.564974,0.288468,0.266,0.19,DENVER,80204,1820 LOWELL BLVD
'WEST DENVER PREP:  FEDERAL CAMPUS',12,6,5,9,6,6,13,13,13,13,332,0.006024,0,0,0.981928,0.012048,0,0,0.9277,0.397311,0.283844,0.087,0.111,DENVER,80219,1825 SOUTH FEDERAL
'WEST DENVER PREP: HARVEY PARK CAMPUS',12,7,5,10,6,10,13,12,13,13,319,0,0.015674,0.003135,0.9279,0.047022,0.00627,0,0.8966,0.397311,0.283844,0.087,0.111,DENVER,80219,2250 SOUTH QUITMAN WAY
'WEST HIGH SCHOOL',1,1,1,1,1,2,6,9,3,6,700,0.014286,0.002857,0.055714,0.872857,0.044286,0,0.01,0.8729,0.564974,0.288468,0.266,0.19,DENVER,80204,951 ELATI STREET
'WESTERLY CREEK ELEMENTARY',9,9,9,9,9,9,9,9,6,8,604,0.001656,0.039735,0.097682,0.125828,0.688742,0.001656,0.044702,0.2155,0.123267,0.868097,0.808,0.695,DENVER,80238,8800 EAST 28TH AVENUE
'WHITTIER K-8 SCHOOL',6,3,5,1,4,4,7,7,7,6,283,0.014134,0.007067,0.431095,0.385159,0.095406,0,0.067138,0.905,0.534853,0.403518,0.487,0.249,DENVER,80205,2480 DOWNING STREET
'WHITTIER K-8 SCHOOL',9,6,4,6,6,6.718607,13,12,10,13,283,0.014134,0.007067,0.431095,0.385159,0.095406,0,0.067138,0.905,0.534853,0.403518,0.487,0.249,DENVER,80205,2480 DOWNING STREET
'WILLIAM (BILL) ROBERTS K-8 SCHOOL',12,11,10,11,11,9,10,9,9,9,782,0.002558,0.026854,0.103581,0.117647,0.69821,0.001279,0.049872,0.1617,0.123267,0.868097,0.808,0.695,DENVER,80238,2100 AKRON WAY
'WILLIAM (BILL) ROBERTS K-8 SCHOOL',10,7,6,7,6,9,10,10,10,9,782,0.002558,0.026854,0.103581,0.117647,0.69821,0.001279,0.049872,0.1617,0.123267,0.868097,0.808,0.695,DENVER,80238,2100 AKRON WAY
'WYATT-EDISON CHARTER ELEMENTARY SCHOOL',1,3,3,4,3,1,3,1,4,4,652,0.013804,0,0.230061,0.722393,0.029141,0,0.004601,0.7469,0.534853,0.403518,0.487,0.249,DENVER,80205,3620 FRANKLIN STREET
'WYATT-EDISON CHARTER ELEMENTARY SCHOOL',6,3,3,4,3,1,9,9,10,7,652,0.013804,0,0.230061,0.722393,0.029141,0,0.004601,0.7469,0.534853,0.403518,0.487,0.249,DENVER,80205,3620 FRANKLIN STREET
'EXPEDITIONARY LEARNING SCHOOL',6,9,9,9,8,9,5,3,6,5,362,0.005525,0.035912,0.033149,0.11326,0.751381,0,0.060773,0,0.282386,0.491655,0.502,0.396,DENVER,80222,1700 SOUTH HOLLY STREET
'EXPEDITIONARY LEARNING SCHOOL',9,8,8,7,9,9,10,9,10,9,362,0.005525,0.035912,0.033149,0.11326,0.751381,0,0.060773,0,0.282386,0.491655,0.502,0.396,DENVER,80222,1700 SOUTH HOLLY STREET
'EXPEDITIONARY LEARNING SCHOOL',9,6,6,6,6,9,6,1,9,9,362,0.005525,0.035912,0.033149,0.11326,0.751381,0,0.060773,0,0.282386,0.491655,0.502,0.396,DENVER,80222,1700 SOUTH HOLLY STREET
